start=new Date('2022-09-27T00:00:00.000Z').valueOf();
sats=[{"TIME_SYSTEM":"UTC","TLE_LINE2":"2 47669  53.0519 228.9148 0002859 109.6407 250.4892 15.11466579 91456","MEAN_MOTION_DOT":"0.00019071","PERIOD":"95.272","SEMIMAJOR_AXIS":"6909.864","REV_AT_EPOCH":"9145","EPOCH":"2022-09-26T21:04:48.145728","DECAY_DATE":null,"OBJECT_TYPE":"PAYLOAD","MEAN_ANOMALY":"250.4892","LAUNCH_DATE":"2021-02-16","COUNTRY_CODE":"US","CLASSIFICATION_TYPE":"U","PERIAPSIS":"529.753","TLE_LINE1":"1 47669U 21012BB  22269.87833502  .00019071  00000-0  11287-2 0  9994","CENTER_NAME":"EARTH","RA_OF_ASC_NODE":"228.9148","APOAPSIS":"533.704","ECCENTRICITY":"0.00028590","BSTAR":"0.00112870000000","EPHEMERIS_TYPE":"0","MEAN_MOTION":"15.11466579","MEAN_MOTION_DDOT":"0.0000000000000","NORAD_CAT_ID":"47669","FILE":"3584555","OBJECT_NAME":"STARLINK-2060","RCS_SIZE":"LARGE","INCLINATION":"53.0519","REF_FRAME":"TEME","MEAN_ELEMENT_THEORY":"SGP4","ELEMENT_SET_NO":"999","ARG_OF_PERICENTER":"109.6407","OBJECT_ID":"2021-012BB","SITE":"AFETR","GP_ID":"213598322"},{"ECCENTRICITY":"0.00015450","BSTAR":"-0.00000570550000","EPHEMERIS_TYPE":"0","MEAN_MOTION_DDOT":"0.0000000000000","MEAN_MOTION":"15.06392441","NORAD_CAT_ID":"47670","FILE":"3584555","OBJECT_NAME":"STARLINK-2062","INCLINATION":"53.0558","RCS_SIZE":"LARGE","REF_FRAME":"TEME","MEAN_ELEMENT_THEORY":"SGP4","ELEMENT_SET_NO":"999","ARG_OF_PERICENTER":"52.3143","OBJECT_ID":"2021-012BC","SITE":"AFETR","GP_ID":"213599074","TIME_SYSTEM":"UTC","TLE_LINE2":"2 47670  53.0558 307.4740 0001545  52.3143 307.7986 15.06392441 90363","MEAN_MOTION_DOT":"-0.00000366","PERIOD":"95.593","SEMIMAJOR_AXIS":"6925.372","EPOCH":"2022-09-26T19:15:37.670976","REV_AT_EPOCH":"9036","DECAY_DATE":null,"OBJECT_TYPE":"PAYLOAD","MEAN_ANOMALY":"307.7986","LAUNCH_DATE":"2021-02-16","COUNTRY_CODE":"US","CLASSIFICATION_TYPE":"U","PERIAPSIS":"546.167","TLE_LINE1":"1 47670U 21012BC  22269.80251934 -.00000366  00000-0 -57055-5 0  9997","CENTER_NAME":"EARTH","RA_OF_ASC_NODE":"307.4740","APOAPSIS":"548.307"},{"APOAPSIS":"548.214","RA_OF_ASC_NODE":"309.3287","CLASSIFICATION_TYPE":"U","COUNTRY_CODE":"US","TLE_LINE1":"1 47671U 21012BD  22269.38600613 -.00000082  00000-0  13408-4 0  9990","PERIAPSIS":"546.227","CENTER_NAME":"EARTH","OBJECT_TYPE":"PAYLOAD","LAUNCH_DATE":"2021-02-16","MEAN_ANOMALY":"284.2190","TLE_LINE2":"2 47671  53.0538 309.3287 0001435  75.8959 284.2190 15.06397713 90310","TIME_SYSTEM":"UTC","PERIOD":"95.592","MEAN_MOTION_DOT":"-0.00000082","SEMIMAJOR_AXIS":"6925.356","DECAY_DATE":null,"REV_AT_EPOCH":"9031","EPOCH":"2022-09-26T09:15:50.929632","ARG_OF_PERICENTER":"75.8959","ELEMENT_SET_NO":"999","OBJECT_ID":"2021-012BD","GP_ID":"213542540","SITE":"AFETR","OBJECT_NAME":"STARLINK-2064","RCS_SIZE":"LARGE","INCLINATION":"53.0538","REF_FRAME":"TEME","MEAN_ELEMENT_THEORY":"SGP4","MEAN_MOTION_DDOT":"0.0000000000000","MEAN_MOTION":"15.06397713","EPHEMERIS_TYPE":"0","NORAD_CAT_ID":"47671","FILE":"3584345","ECCENTRICITY":"0.00014350","BSTAR":"0.00001340800000"},{"ECCENTRICITY":"0.00014770","BSTAR":"-0.00000999270000","FILE":"3584345","NORAD_CAT_ID":"47672","EPHEMERIS_TYPE":"0","MEAN_MOTION":"15.06391863","MEAN_MOTION_DDOT":"0.0000000000000","REF_FRAME":"TEME","MEAN_ELEMENT_THEORY":"SGP4","OBJECT_NAME":"STARLINK-2065","RCS_SIZE":"LARGE","INCLINATION":"53.0543","SITE":"AFETR","GP_ID":"213543282","ELEMENT_SET_NO":"999","ARG_OF_PERICENTER":"69.5836","OBJECT_ID":"2021-012BE","SEMIMAJOR_AXIS":"6925.373","REV_AT_EPOCH":"9042","EPOCH":"2022-09-26T08:45:20.459232","DECAY_DATE":null,"TIME_SYSTEM":"UTC","TLE_LINE2":"2 47672  53.0543 299.4501 0001477  69.5836 290.5312 15.06391863 90423","MEAN_MOTION_DOT":"-0.00000430","PERIOD":"95.593","MEAN_ANOMALY":"290.5312","LAUNCH_DATE":"2021-02-16","OBJECT_TYPE":"PAYLOAD","PERIAPSIS":"546.216","TLE_LINE1":"1 47672U 21012BE  22269.36482013 -.00000430  00000-0 -99927-5 0  9990","CENTER_NAME":"EARTH","COUNTRY_CODE":"US","CLASSIFICATION_TYPE":"U","RA_OF_ASC_NODE":"299.4501","APOAPSIS":"548.261"},{"COUNTRY_CODE":"US","CLASSIFICATION_TYPE":"U","CENTER_NAME":"EARTH","PERIAPSIS":"546.121","TLE_LINE1":"1 47673U 21012BF  22269.80620992 -.00000280  00000-0  71499-7 0  9998","RA_OF_ASC_NODE":"307.4674","APOAPSIS":"548.380","MEAN_MOTION_DOT":"-0.00000280","PERIOD":"95.593","TIME_SYSTEM":"UTC","TLE_LINE2":"2 47673  53.0557 307.4674 0001631  68.4680 291.6483 15.06388089 90367","EPOCH":"2022-09-26T19:20:56.537088","REV_AT_EPOCH":"9036","DECAY_DATE":null,"SEMIMAJOR_AXIS":"6925.385","OBJECT_TYPE":"PAYLOAD","MEAN_ANOMALY":"291.6483","LAUNCH_DATE":"2021-02-16","RCS_SIZE":"LARGE","INCLINATION":"53.0557","OBJECT_NAME":"STARLINK-2066","MEAN_ELEMENT_THEORY":"SGP4","REF_FRAME":"TEME","OBJECT_ID":"2021-012BF","ELEMENT_SET_NO":"999","ARG_OF_PERICENTER":"68.4680","SITE":"AFETR","GP_ID":"213597822","BSTAR":"0.00000007149900","ECCENTRICITY":"0.00016310","EPHEMERIS_TYPE":"0","MEAN_MOTION":"15.06388089","MEAN_MOTION_DDOT":"0.0000000000000","NORAD_CAT_ID":"47673","FILE":"3584555"},{"OBJECT_NAME":"STARLINK-2067","INCLINATION":"53.0556","RCS_SIZE":"LARGE","REF_FRAME":"TEME","MEAN_ELEMENT_THEORY":"SGP4","ARG_OF_PERICENTER":"48.4455","ELEMENT_SET_NO":"999","OBJECT_ID":"2021-012BG","GP_ID":"213541794","SITE":"AFETR","ECCENTRICITY":"0.00015520","BSTAR":"-0.00014451000000","MEAN_MOTION":"15.06398025","MEAN_MOTION_DDOT":"0.0000000000000","EPHEMERIS_TYPE":"0","NORAD_CAT_ID":"47674","FILE":"3584345","CLASSIFICATION_TYPE":"U","COUNTRY_CODE":"US","TLE_LINE1":"1 47674U 21012BG  22269.35557292 -.00002433  00000-0 -14451-3 0  9995","PERIAPSIS":"546.145","CENTER_NAME":"EARTH","APOAPSIS":"548.294","RA_OF_ASC_NODE":"309.4678","TLE_LINE2":"2 47674  53.0556 309.4678 0001552  48.4455 311.6667 15.06398025 90305","TIME_SYSTEM":"UTC","PERIOD":"95.592","MEAN_MOTION_DOT":"-0.00002433","SEMIMAJOR_AXIS":"6925.355","DECAY_DATE":null,"REV_AT_EPOCH":"9030","EPOCH":"2022-09-26T08:32:01.500288","OBJECT_TYPE":"PAYLOAD","LAUNCH_DATE":"2021-02-16","MEAN_ANOMALY":"311.6667"},{"EPOCH":"2022-09-26T19:31:33.094272","REV_AT_EPOCH":"8985","DECAY_DATE":null,"SEMIMAJOR_AXIS":"6925.389","MEAN_MOTION_DOT":"-0.00002456","PERIOD":"95.593","TIME_SYSTEM":"UTC","TLE_LINE2":"2 47675  53.0537 307.4227 0001420  81.9351 278.1799 15.06386759 89856","MEAN_ANOMALY":"278.1799","LAUNCH_DATE":"2021-02-16","OBJECT_TYPE":"PAYLOAD","CENTER_NAME":"EARTH","PERIAPSIS":"546.271","TLE_LINE1":"1 47675U 21012BH  22269.81357748 -.00002456  00000-0 -14607-3 0  9999","COUNTRY_CODE":"US","CLASSIFICATION_TYPE":"U","RA_OF_ASC_NODE":"307.4227","APOAPSIS":"548.238","BSTAR":"-0.00014607000000","ECCENTRICITY":"0.00014200","NORAD_CAT_ID":"47675","FILE":"3584392","EPHEMERIS_TYPE":"0","MEAN_MOTION_DDOT":"0.0000000000000","MEAN_MOTION":"15.06386759","MEAN_ELEMENT_THEORY":"SGP4","REF_FRAME":"TEME","RCS_SIZE":"LARGE","INCLINATION":"53.0537","OBJECT_NAME":"STARLINK-2078","SITE":"AFETR","GP_ID":"213573422","OBJECT_ID":"2021-012BH","ELEMENT_SET_NO":"999","ARG_OF_PERICENTER":"81.9351"},{"ECCENTRICITY":"0.00014710","BSTAR":"-0.00001782100000","NORAD_CAT_ID":"47676","FILE":"3584345","MEAN_MOTION_DDOT":"0.0000000000000","MEAN_MOTION":"15.06399399","EPHEMERIS_TYPE":"0","REF_FRAME":"TEME","MEAN_ELEMENT_THEORY":"SGP4","OBJECT_NAME":"STARLINK-2083","INCLINATION":"53.0524","RCS_SIZE":"LARGE","GP_ID":"213542782","SITE":"AFETR","ARG_OF_PERICENTER":"75.7948","ELEMENT_SET_NO":"999","OBJECT_ID":"2021-012BJ","SEMIMAJOR_AXIS":"6925.350","DECAY_DATE":null,"EPOCH":"2022-09-26T01:53:58.029504","REV_AT_EPOCH":"9178","TLE_LINE2":"2 47676  53.0524 200.7134 0001471  75.7948 284.3204 15.06399399 91783","TIME_SYSTEM":"UTC","PERIOD":"95.592","MEAN_MOTION_DOT":"-0.00000547","LAUNCH_DATE":"2021-02-16","MEAN_ANOMALY":"284.3204","OBJECT_TYPE":"PAYLOAD","TLE_LINE1":"1 47676U 21012BJ  22269.07914386 -.00000547  00000-0 -17821-4 0  9996","PERIAPSIS":"546.197","CENTER_NAME":"EARTH","CLASSIFICATION_TYPE":"U","COUNTRY_CODE":"US","APOAPSIS":"548.234","RA_OF_ASC_NODE":"200.7134"},{"DECAY_DATE":null,"REV_AT_EPOCH":"9009","EPOCH":"2022-09-26T20:47:09.632544","SEMIMAJOR_AXIS":"6925.393","PERIOD":"95.593","MEAN_MOTION_DOT":"-0.00001733","TLE_LINE2":"2 47677  53.0561 327.1807 0001564  52.7579 307.3553 15.06385483 90099","TIME_SYSTEM":"UTC","LAUNCH_DATE":"2021-02-16","MEAN_ANOMALY":"307.3553","OBJECT_TYPE":"PAYLOAD","CENTER_NAME":"EARTH","TLE_LINE1":"1 47677U 21012BK  22269.86608371 -.00001733  00000-0 -97484-4 0  9999","PERIAPSIS":"546.175","CLASSIFICATION_TYPE":"U","COUNTRY_CODE":"US","APOAPSIS":"548.341","RA_OF_ASC_NODE":"327.1807","BSTAR":"-0.00009748400000","ECCENTRICITY":"0.00015640","FILE":"3584555","NORAD_CAT_ID":"47677","MEAN_MOTION":"15.06385483","MEAN_MOTION_DDOT":"0.0000000000000","EPHEMERIS_TYPE":"0","MEAN_ELEMENT_THEORY":"SGP4","REF_FRAME":"TEME","RCS_SIZE":"LARGE","INCLINATION":"53.0561","OBJECT_NAME":"STARLINK-2090","GP_ID":"213598323","SITE":"AFETR","OBJECT_ID":"2021-012BK","ARG_OF_PERICENTER":"52.7579","ELEMENT_SET_NO":"999"},{"MEAN_ANOMALY":"300.1593","LAUNCH_DATE":"2021-02-16","OBJECT_TYPE":"PAYLOAD","SEMIMAJOR_AXIS":"6925.372","EPOCH":"2022-09-26T11:56:22.918272","REV_AT_EPOCH":"9005","DECAY_DATE":null,"TIME_SYSTEM":"UTC","TLE_LINE2":"2 47679  53.0558 328.8549 0001561  59.9550 300.1593 15.06392337 90050","MEAN_MOTION_DOT":"-0.00000365","PERIOD":"95.593","RA_OF_ASC_NODE":"328.8549","APOAPSIS":"548.318","PERIAPSIS":"546.156","TLE_LINE1":"1 47679U 21012BM  22269.49748748 -.00000365  00000-0 -55948-5 0  9993","CENTER_NAME":"EARTH","COUNTRY_CODE":"US","CLASSIFICATION_TYPE":"U","NORAD_CAT_ID":"47679","FILE":"3584345","EPHEMERIS_TYPE":"0","MEAN_MOTION":"15.06392337","MEAN_MOTION_DDOT":"0.0000000000000","ECCENTRICITY":"0.00015610","BSTAR":"-0.00000559480000","SITE":"AFETR","GP_ID":"213542294","ELEMENT_SET_NO":"999","ARG_OF_PERICENTER":"59.9550","OBJECT_ID":"2021-012BM","REF_FRAME":"TEME","MEAN_ELEMENT_THEORY":"SGP4","OBJECT_NAME":"STARLINK-2095","RCS_SIZE":"LARGE","INCLINATION":"53.0558"}];
